RADCAL                  
1 22698U 93041A   09129.17037029  .00000090  00000-0  32577-4 0  3287
2 22698  89.5361  29.2694 0092036  84.7366 276.4327 14.22814028823722
STRV 1A                 
1 23125U 94034B   09128.05227552  .00001082  00000-0  23743-3 0  4258
2 23125   7.2602 107.4645 6842359 250.2180  28.3132  2.85006062138307
STRV 1B                 
1 23126U 94034C   09129.28845750  .00010224  00000-0  90830-3 0  4294
2 23126   7.3374  54.6448 6816002 355.0747   0.6899  2.91328556140519
HELIOS 1A               
1 23605U 95033A   09130.10762325  .00000081  00000-0  24418-4 0  1078
2 23605  98.0818  67.5249 0002373 114.6752 245.4703 14.63863143739605
REX 2                   
1 23814U 96014A   09129.79089503  .00000044  00000-0  14457-4 0  6743
2 23814  90.1564 271.5718 0024826  78.2888 282.1090 14.23864430684082
COSMOS 2346             
1 24953U 97052A   09129.66270365  .00000004  00000-0 -10525-4 0  4719
2 24953  82.9221 344.5567 0038154 239.3667 120.3724 13.79433882585319
ARGOS                   
1 25634U 99008A   09129.18382680 -.00000107  00000-0 -29322-4 0  7139
2 25634  99.0144 165.5939 0010929  61.3139 298.9122 14.18907320528510
HELIOS 1B               
1 25977U 99064A   09130.10656732  .00000306  00000-0  50418-4 0  2478
2 25977  98.3397 129.5262 0002541  85.1036 275.0462 14.77687323506301
MTI                     
1 26102U 00014A   09130.21630133 -.00000103  00000-0 -24837-5 0  5999
2 26102  97.2159 296.4983 0018408 241.5660 170.6132 15.11725271503664
STRV 1C                 
1 26610U 00072C   09129.65724995 -.00000129  00000-0  00000+0 0  9242
2 26610   6.7451 297.1769 7326361  41.8145 355.4140  2.03457791 63034
OFEQ 5                  
1 27434U 02025A   09130.19548922  .00001053  00000-0  39690-4 0  1837
2 27434 143.4650  58.9391 0025099  68.3289 292.0130 15.05583303387560
HELIOS-2A               
1 28492U 04049A   09130.14107154  .00000083  00000-0  24764-4 0  9233
2 28492  98.0856  67.6791 0001786 105.4644 254.6764 14.63858247234578
ESSAIM-1                
1 28494U 04049C   09130.13476233  .00000050  00000-0  16759-4 0  9869
2 28494  98.2516  88.6752 0003130  21.0749 339.0597 14.70163149235491
ESSAIM-2                
1 28495U 04049D   09130.13430969  .00000109  00000-0  26546-4 0   160
2 28495  98.2521  88.7784 0003863  10.3049 349.8246 14.70164114235494
ESSAIM-3                
1 28496U 04049E   09130.13491930  .00000057  00000-0  17977-4 0  9446
2 28496  98.2645  93.0073 0009216  14.9416 345.2072 14.70162422235675
ESSAIM-4                
1 28497U 04049F   09130.13444492  .00000098  00000-0  24922-4 0  9980
2 28497  98.2649  93.0472 0012314   9.5234 350.6212 14.70162129235674
SAR-LUPE 1              
1 29658U 06060A   09130.21320289  .00000863  00000-0  36274-4 0  6756
2 29658  98.1296 226.4860 0021379  35.8198  49.3699 15.26449270133132
MIDSTAR-1               
1 30773U 07006B   09129.35615324 -.00000305  00000-0  00000+0 0  6189
2 30773  46.0345 204.5944 0011098 336.1266  23.9166 15.23751356120815
CFESAT                  
1 30777U 07006F   09128.97386652  .00000277  00000-0  23433-4 0  5714
2 30777  35.4341 340.9723 0004288 276.7113  83.3114 15.02733383119155
NFIRE                   
1 31140U 07014A   09129.22059304  .00003526  00000-0  49263-4 0  8002
2 31140  48.2312  57.1090 0052314 191.8322 168.1420 15.58269942116151
OFEQ 7                  
1 31601U 07025A   09130.23346321  .00002222  00000-0  75893-4 0  1741
2 31601 141.7477 234.0358 0071815 230.2502 173.5992 15.19541961106651
SAR-LUPE 2              
1 31797U 07030A   09130.21114631  .00000496  00000-0  22399-4 0   774
2 31797  98.1922 295.8555 0013759 348.0054 121.2362 15.26402691103353
SAR-LUPE 3              
1 32283U 07053A   09130.22475348  .00000591  00000-0  25937-4 0  7062
2 32283  98.1300 357.9329 0012285  92.1338  56.4166 15.26467223 84865
SAR-LUPE 4              
1 32750U 08014A   09130.20060394  .00000808  00000-0  34208-4 0  2481
2 32750  98.1258 227.5684 0021583 198.9548 246.4558 15.26419985 62315
SAR-LUPE 5              
1 33244U 08036A   09130.21159880  .00000569  00000-0  25065-4 0  8935
2 33244  98.1242 356.3899 0020133 246.3647 261.8926 15.26458103 44555
SPIRALE A               
1 33751U 09008C   09129.30982931 -.00000052  00000-0  10000-3 0   670
2 33751   1.7934 266.8822 7140729 243.4634  30.0008  2.25833503  1930
SPIRALE B               
1 33752U 09008D   09129.33118747  .00000034  00000-0  17223-2 0   537
2 33752   1.8024 266.6343 7137610 243.5663  30.3255  2.25846267  1934
